NORAD_CAT_ID,OBJECT_NAME,OBJECT_TYPE,EPOCH,MEAN_MOTION,ECCENTRICITY,INCLINATION,RA_OF_ASC_NODE,ARG_OF_PERICENTER,MEAN_ANOMALY,BSTAR,MEAN_MOTION_DOT,MEAN_MOTION_DDOT,TLE_LINE0,TLE_LINE1,TLE_LINE2,SEMIMAJOR_AXIS,PERIOD,APOGEE,PERIGEE,DECAYED
50195.0,STARLINK-3266,PAYLOAD,2023-09-15 13:02:08,15.08842072,0.0001292,53.2186,346.9732,110.2485,249.8646,0.00090696,0.00014177,0.0,0 STARLINK-3266,1 50195U 21125AR  23258.54315699  .00014177  00000-0  90696-3 0  9996,2 50195  53.2186 346.9732 0001292 110.2485 249.8646 15.08842072 99932,6917.874,95.437,540.633,538.845,0.0
50195.0,STARLINK-3266,PAYLOAD,2023-09-16 11:17:32,15.08847204,0.0001511,53.2186,342.8118,109.9232,250.1923,0.00025193,3.725e-05,0.0,0 STARLINK-3266,1 50195U 21125AR  23259.47051388  .00003725  00000-0  25193-3 0  9998,2 50195  53.2186 342.8118 0001511 109.9232 250.1923 15.08847204100077,6917.858,95.437,540.769,538.678,0.0
50195.0,STARLINK-3266,PAYLOAD,2023-09-17 11:08:19,15.08848262,0.0001209,53.2189,338.3514,91.3976,268.7155,0.00010394,1.367e-05,0.0,0 STARLINK-3266,1 50195U 21125AR  23260.46411025  .00001367  00000-0  10394-3 0  9994,2 50195  53.2189 338.3514 0001209  91.3976 268.7155 15.08848262 99741,6917.855,95.437,540.557,538.884,0.0
50195.0,STARLINK-3266,PAYLOAD,2023-09-17 15:54:28,15.08857436,0.0001446,53.2189,337.4592,99.4881,260.6274,2.5468e-05,1.18e-06,0.0,0 STARLINK-3266,1 50195U 21125AR  23260.66282441  .00000118  00000-0  25468-4 0  9996,2 50195  53.2189 337.4592 0001446  99.4881 260.6274 15.08857436 99773,6917.827,95.436,540.692,538.692,0.0
50195.0,STARLINK-3266,PAYLOAD,2023-09-17 23:51:24,15.0884661,0.0001347,53.2155,335.9695,84.4318,275.6827,5.4301e-05,5.77e-06,0.0,0 STARLINK-3266,1 50195U 21125AR  23260.99402972  .00000577  00000-0  54301-4 0  9992,2 50195  53.2155 335.9695 0001347  84.4318 275.6827 15.08846610 99820,6917.86,95.437,540.657,538.793,0.0
50195.0,STARLINK-3266,PAYLOAD,2023-09-18 12:34:28,15.08851192,0.0001265,53.2165,333.5924,81.3079,278.8057,0.00013964,1.936e-05,0.0,0 STARLINK-3266,1 50195U 21125AR  23261.52394616  .00001936  00000-0  13964-3 0  9996,2 50195  53.2165 333.5924 0001265  81.3079 278.8057 15.08851192100384,6917.846,95.437,540.586,538.836,0.0
50195.0,STARLINK-3266,PAYLOAD,2023-09-19 01:17:34,15.08844138,0.0001309,53.2167,331.2137,87.2322,272.882,0.00010442,1.375e-05,0.0,0 STARLINK-3266,1 50195U 21125AR  23262.05386744  .00001375  00000-0  10442-3 0  9993,2 50195  53.2167 331.2137 0001309  87.2322 272.8820 15.08844138 99989,6917.868,95.437,540.638,538.827,0.0
50195.0,STARLINK-3266,PAYLOAD,2023-09-19 10:49:52,15.08856501,0.0001372,53.2158,329.4281,91.7539,268.361,0.0002106,3.067e-05,0.0,0 STARLINK-3266,1 50195U 21125AR  23262.45129931  .00003067  00000-0  21060-3 0  9998,2 50195  53.2158 329.4281 0001372  91.7539 268.3610 15.08856501100042,6917.83,95.437,540.644,538.746,0.0
50195.0,STARLINK-3266,PAYLOAD,2023-09-20 02:43:44,15.08839142,0.0001566,53.216,326.4559,118.2026,241.9125,-5.9568e-07,-2.97e-06,0.0,0 STARLINK-3266,1 50195U 21125AR  23263.11370603 -.00000297  00000-0 -59568-6 0  9997,2 50195  53.2160 326.4559 0001566 118.2026 241.9125 15.08839142100142,6917.883,95.438,540.831,538.665,0.0
50195.0,STARLINK-3266,PAYLOAD,2023-09-20 10:40:41,15.08827412,0.0001453,53.2166,324.9689,75.7021,284.4133,-7.4917e-05,-1.48e-05,0.0,0 STARLINK-3266,1 50195U 21125AR  23263.44492229 -.00001480  00000-0 -74917-4 0  9990,2 50195  53.2166 324.9689 0001453  75.7021 284.4133 15.08827412100195,6917.919,95.438,540.789,538.779,0.0
50195.0,STARLINK-3266,PAYLOAD,2023-09-21 10:31:27,15.08843956,0.0001372,53.2165,320.5068,84.4755,275.6394,6.8387e-05,8.01e-06,0.0,0 STARLINK-3266,1 50195U 21125AR  23264.43851006  .00000801  00000-0  68387-4 0  9990,2 50195  53.2165 320.5068 0001372  84.4755 275.6394 15.08843956100347,6917.868,95.437,540.682,538.784,0.0
50195.0,STARLINK-3266,PAYLOAD,2023-09-22 04:00:42,15.08829886,0.0001483,53.2163,317.2369,67.339,292.7759,0.00021037,3.061e-05,0.0,0 STARLINK-3266,1 50195U 21125AR  23265.16715834  .00003061  00000-0  21037-3 0  9990,2 50195  53.2163 317.2369 0001483  67.3390 292.7759 15.08829886100453,6917.911,95.438,540.802,538.75,0.0
50195.0,STARLINK-3266,PAYLOAD,2023-09-22 10:22:14,15.08836246,0.0001544,53.2171,316.0488,67.3943,292.7213,0.00025685,3.802e-05,0.0,0 STARLINK-3266,1 50195U 21125AR  23265.43211711  .00003802  00000-0  25685-3 0  9991,2 50195  53.2171 316.0488 0001544  67.3943 292.7213 15.08836246100973,6917.892,95.438,540.825,538.689,0.0
50195.0,STARLINK-3266,PAYLOAD,2023-09-22 19:54:33,15.08837029,0.0001437,53.2167,314.2637,72.0675,288.0474,0.00019485,2.814e-05,0.0,0 STARLINK-3266,1 50195U 21125AR  23265.82955875  .00002814  00000-0  19485-3 0  9993,2 50195  53.2167 314.2637 0001437  72.0675 288.0474 15.08837029101035,6917.889,95.438,540.749,538.76,0.0
50195.0,STARLINK-3266,PAYLOAD,2023-09-23 02:16:06,15.08843592,0.0001535,53.2166,313.0743,80.4655,279.6511,8.5149e-05,1.068e-05,0.0,0 STARLINK-3266,1 50195U 21125AR  23266.09451645  .00001068  00000-0  85149-4 0  9990,2 50195  53.2166 313.0743 0001535  80.4655 279.6511 15.08843592100599,6917.869,95.437,540.796,538.673,0.0
50195.0,STARLINK-3266,PAYLOAD,2023-09-23 10:13:01,15.08846267,0.0001531,53.2167,311.5874,84.0444,276.0723,9.1122e-05,1.163e-05,0.0,0 STARLINK-3266,1 50195U 21125AR  23266.42571303  .00001163  00000-0  91122-4 0  9995,2 50195  53.2167 311.5874 0001531  84.0444 276.0723 15.08846267101128,6917.861,95.437,540.785,538.667,0.0
50195.0,STARLINK-3266,PAYLOAD,2023-09-24 03:42:16,15.08833954,0.0001493,53.2167,308.3162,87.8094,272.3069,2.2463e-05,6.9e-07,0.0,0 STARLINK-3266,1 50195U 21125AR  23267.15436171  .00000069  00000-0  22463-4 0  9995,2 50195  53.2167 308.3162 0001493  87.8094 272.3069 15.08833954100750,6917.899,95.438,540.797,538.731,0.0
50195.0,STARLINK-3266,PAYLOAD,2023-09-24 08:28:26,15.08834567,0.000158,53.2168,307.4241,96.8007,263.3165,3.0079e-05,1.91e-06,0.0,0 STARLINK-3266,1 50195U 21125AR  23267.35308105  .00000191  00000-0  30079-4 0  9990,2 50195  53.2168 307.4241 0001580  96.8007 263.3165 15.08834567101265,6917.897,95.438,540.855,538.669,0.0
50195.0,STARLINK-3266,PAYLOAD,2023-09-25 01:57:40,15.08840458,0.0001529,53.2177,304.1541,97.9909,262.1257,5.9202e-05,6.54e-06,0.0,0 STARLINK-3266,1 50195U 21125AR  23268.08171710  .00000654  00000-0  59202-4 0  9994,2 50195  53.2177 304.1541 0001529  97.9909 262.1257 15.08840458100891,6917.879,95.438,540.802,538.686,0.0
50195.0,STARLINK-3266,PAYLOAD,2023-09-25 09:54:35,15.08847409,0.000138,53.2174,302.6655,86.2149,273.9001,0.0001577,2.223e-05,0.0,0 STARLINK-3266,1 50195U 21125AR  23268.41291128  .00002223  00000-0  15770-3 0  9992,2 50195  53.2174 302.6655 0001380  86.2149 273.9001 15.08847409101429,6917.858,95.437,540.677,538.768,0.0
50195.0,STARLINK-3266,PAYLOAD,2023-09-26 09:45:22,15.0884257,0.0001567,53.2166,298.2036,84.9717,275.1454,0.00010588,1.398e-05,0.0,0 STARLINK-3266,1 50195U 21125AR  23269.40651526  .00001398  00000-0  10588-3 0  9998,2 50195  53.2166 298.2036 0001567  84.9717 275.1454 15.08842570101099,6917.873,95.437,540.822,538.654,0.0
50195.0,STARLINK-3266,PAYLOAD,2023-09-27 01:39:14,15.08834161,0.000154,53.2172,295.233,64.0118,296.1032,0.00011435,1.532e-05,0.0,0 STARLINK-3266,1 50195U 21125AR  23270.06892018  .00001532  00000-0  11435-3 0  9997,2 50195  53.2172 295.2330 0001540  64.0118 296.1032 15.08834161101198,6917.898,95.438,540.829,538.698,0.0
50195.0,STARLINK-3266,PAYLOAD,2023-09-27 08:00:47,15.08840636,0.000133,53.2167,294.0414,87.1162,272.9983,1.6079e-05,-3.2e-07,0.0,0 STARLINK-3266,1 50195U 21125AR  23270.33387800 -.00000032  00000-0  16079-4 0  9990,2 50195  53.2167 294.0414 0001330  87.1162 272.9983 15.08840636101713,6917.878,95.438,540.664,538.823,0.0
50195.0,STARLINK-3266,PAYLOAD,2023-09-28 04:40:48,15.08831542,0.0001539,53.2156,290.1752,94.5543,265.5624,-3.5681e-05,-8.56e-06,0.0,0 STARLINK-3266,1 50195U 21125AR  23271.19500660 -.00000856  00000-0 -35681-4 0  9991,2 50195  53.2156 290.1752 0001539  94.5543 265.5624 15.08831542101366,6917.906,95.438,540.836,538.707,0.0
50195.0,STARLINK-3266,PAYLOAD,2023-09-28 07:51:34,15.08833058,0.0001552,53.2157,289.5806,94.446,265.6709,-2.4495e-05,-6.78e-06,0.0,0 STARLINK-3266,1 50195U 21125AR  23271.32748569 -.00000678  00000-0 -24495-4 0  9991,2 50195  53.2157 289.5806 0001552  94.4460 265.6709 15.08833058101865,6917.902,95.438,540.84,538.693,0.0
50195.0,STARLINK-3266,PAYLOAD,2023-09-29 01:20:48,15.08838054,0.0001514,53.2157,286.3089,94.4632,265.6533,6.7643e-05,7.89e-06,0.0,0 STARLINK-3266,1 50195U 21125AR  23272.05612122  .00000789  00000-0  67643-4 0  9990,2 50195  53.2157 286.3089 0001514  94.4632 265.6533 15.08838054101497,6917.886,95.438,540.799,538.704,0.0
50195.0,STARLINK-3266,PAYLOAD,2023-09-29 07:42:21,15.08843124,0.0001544,53.2157,285.1196,94.6948,265.422,0.00010985,1.461e-05,0.0,0 STARLINK-3266,1 50195U 21125AR  23272.32107703  .00001461  00000-0  10985-3 0  9998,2 50195  53.2157 285.1196 0001544  94.6948 265.4220 15.08843124102012,6917.871,95.437,540.804,538.668,0.0
50195.0,STARLINK-3266,PAYLOAD,2023-09-30 04:22:21,15.08840852,0.0001535,53.2154,281.2536,83.1793,276.9373,0.00012693,1.733e-05,0.0,0 STARLINK-3266,1 50195U 21125AR  23273.18219786  .00001733  00000-0  12693-3 0  9998,2 50195  53.2154 281.2536 0001535  83.1793 276.9373 15.08840852101666,6917.878,95.438,540.805,538.681,0.0
50195.0,STARLINK-3266,PAYLOAD,2023-10-01 04:13:09,15.08836313,0.0001791,53.2173,276.7939,101.7004,258.4189,-5.4189e-05,-1.15e-05,0.0,0 STARLINK-3266,1 50195U 21125AR  23274.17580724 -.00001150  00000-0 -54189-4 0  9993,2 50195  53.2173 276.7939 0001791 101.7004 258.4189 15.08836313101813,6917.892,95.438,540.996,538.518,0.0
50195.0,STARLINK-3266,PAYLOAD,2023-10-01 07:23:55,15.08837167,0.0001765,53.2173,276.2018,93.4135,266.7059,-3.3892e-05,-8.27e-06,0.0,0 STARLINK-3266,1 50195U 21125AR  23274.30828689 -.00000827  00000-0 -33892-4 0  9991,2 50195  53.2173 276.2018 0001765  93.4135 266.7059 15.08837167102311,6917.889,95.438,540.975,538.533,0.0
